{"type": "FeatureCollection", "features": [ {"type": "Feature", "properties": {"norad_id": 39019, "name": "PLEIADES 1B", "group": "resource", "lat": 12.150935083669058, "lon": 64.99641363745988, "alt_km": 698.8686314959687, "timestamp": "2025-12-20T05:41:49.675145+00:00", "meta": {"OBJECT_NAME": "PLEIADES 1B", "OBJECT_ID": "2012-068A", "EPOCH": "2025-12-19T23:03:18.939168", "MEAN_MOTION": 14.5855826, "ECCENTRICITY": 0.00011747, "INCLINATION": 98.1794, "RA_OF_ASC_NODE": 66.4987, "ARG_OF_PERICENTER": 86.7843, "MEAN_ANOMALY": 273.3491, "EPHEMERIS_TYPE": 0, "CLASSIFICATION_TYPE": "U", "NORAD_CAT_ID": 39019, "ELEMENT_SET_NO": 999, "REV_AT_EPOCH": 69472, "BSTAR": 2.6378283e-05, "MEAN_MOTION_DOT": 7.7e-07, "MEAN_MOTION_DDOT": 0}, "tle": {"line1": "1 39019U 12068A   25353.96063587  .00000077  00000+0  26378-4 0  9994", "line2": "2 39019  98.1794  66.4987 0001174  86.7843 273.3491 14.58558260694722"}}, "geometry": {"type": "Point", "coordinates": [64.99641363745988, 12.150935083669058]}}, {"type": "Feature", "properties": {"norad_id": 39030, "name": "GOKTURK 2", "group": "resource", "lat": -40.996988201223516, "lon": -157.73460062698004, "alt_km": 651.5256435526217, "timestamp": "2025-12-20T05:41:49.675155+00:00", "meta": {"OBJECT_NAME": "GOKTURK 2", "OBJECT_ID": "2012-073A", "EPOCH": "2025-12-19T21:44:44.856672", "MEAN_MOTION": 14.75300145, "ECCENTRICITY": 0.00012534, "INCLINATION": 97.6889, "RA_OF_ASC_NODE": 195.2069, "ARG_OF_PERICENTER": 107.4602, "MEAN_ANOMALY": 252.6745, "EPHEMERIS_TYPE": 0, "CLASSIFICATION_TYPE": "U", "NORAD_CAT_ID": 39030, "ELEMENT_SET_NO": 999, "REV_AT_EPOCH": 69807, "BSTAR": 5.8224902e-05, "MEAN_MOTION_DOT": 3.47e-06, "MEAN_MOTION_DDOT": 0}, "tle": {"line1": "1 39030U 12073A   25353.90607473  .00000347  00000+0  58225-4 0  9991", "line2": "2 39030  97.6889 195.2069 0001253 107.4602 252.6745 14.75300145698078"}}, "geometry": {"type": "Point", "coordinates": [-157.73460062698004, -40.996988201223516]}}, {"type": "Feature", "properties": {"norad_id": 39084, "name": "LANDSAT 8", "group": "resource", "lat": 35.892401380527076, "lon": -111.80552662714902, "alt_km": 699.6061645005111, "timestamp": "2025-12-20T05:41:49.675166+00:00", "meta": {"OBJECT_NAME": "LANDSAT 8", "OBJECT_ID": "2013-008A", "EPOCH": "2025-12-19T20:48:00.328608", "MEAN_MOTION": 14.57109366, "ECCENTRICITY": 0.00010797, "INCLINATION": 98.2064, "RA_OF_ASC_NODE": 61.8347, "ARG_OF_PERICENTER": 90.2596, "MEAN_ANOMALY": 269.8726, "EPHEMERIS_TYPE": 0, "CLASSIFICATION_TYPE": "U", "NORAD_CAT_ID": 39084, "ELEMENT_SET_NO": 999, "REV_AT_EPOCH": 67178, "BSTAR": 7.3601201e-05, "MEAN_MOTION_DOT": 2.86e-06, "MEAN_MOTION_DDOT": 0}, "tle": {"line1": "1 39084U 13008A   25353.86667047  .00000286  00000+0  73601-4 0  9994", "line2": "2 39084  98.2064  61.8347 0001079  90.2596 269.8726 14.57109366671783"}}, "geometry": {"type": "Point", "coordinates": [-111.80552662714902, 35.892401380527076]}}, {"type": "Feature", "properties": {"norad_id": 39086, "name": "SARAL", "group": "resource", "lat": -12.979071327595284, "lon": -3.9173457509855614, "alt_km": 787.3143165827487, "timestamp": "2025-12-20T05:41:49.675177+00:00", "meta": {"OBJECT_NAME": "SARAL", "OBJECT_ID": "2013-009A", "EPOCH": "2025-12-19T22:05:42.733536", "MEAN_MOTION": 14.32759355, "ECCENTRICITY": 0.00029576, "INCLINATION": 98.5502, "RA_OF_ASC_NODE": 177.7573, "ARG_OF_PERICENTER": 94.9707, "MEAN_ANOMALY": 265.1814, "EPHEMERIS_TYPE": 0, "CLASSIFICATION_TYPE": "U", "NORAD_CAT_ID": 39086, "ELEMENT_SET_NO": 999, "REV_AT_EPOCH": 66993, "BSTAR": 4.7049626e-05, "MEAN_MOTION_DOT": 8.4e-07, "MEAN_MOTION_DDOT": 0}, "tle": {"line1": "1 39086U 13009A   25353.92063349  .00000084  00000+0  47050-4 0  9994", "line2": "2 39086  98.5502 177.7573 0002957  94.9707 265.1814 14.32759355669937"}}, "geometry": {"type": "Point", "coordinates": [-3.9173457509855614, -12.979071327595284]}}, {"type": "Feature", "properties": {"norad_id": 39150, "name": "GAOFEN-1", "group": "resource", "lat": 68.4651028954131, "lon": 44.07241303095967, "alt_km": 625.5145788425607, "timestamp": "2025-12-20T05:41:49.675187+00:00", "meta": {"OBJECT_NAME": "GAOFEN-1", "OBJECT_ID": "2013-018A", "EPOCH": "2025-12-19T22:52:33.113856", "MEAN_MOTION": 14.76490361, "ECCENTRICITY": 0.00183484, "INCLINATION": 97.9326, "RA_OF_ASC_NODE": 64.4853, "ARG_OF_PERICENTER": 121.0896, "MEAN_ANOMALY": 239.2118, "EPHEMERIS_TYPE": 0, "CLASSIFICATION_TYPE": "U", "NORAD_CAT_ID": 39150, "ELEMENT_SET_NO": 999, "REV_AT_EPOCH": 68179, "BSTAR": 2.6059502e-05, "MEAN_MOTION_DOT": 1.31e-06, "MEAN_MOTION_DDOT": 0}, "tle": {"line1": "1 39150U 13018A   25353.95316104  .00000131  00000+0  26060-4 0  9990", "line2": "2 39150  97.9326  64.4853 0018348 121.0896 239.2118 14.76490361681795"}}, "geometry": {"type": "Point", "coordinates": [44.07241303095967, 68.4651028954131]}}, {"type": "Feature", "properties": {"norad_id": 39160, "name": "VNREDSAT 1", "group": "resource", "lat": -0.016141291943930505, "lon": -130.75232306921689, "alt_km": 680.4494747686222, "timestamp": "2025-12-20T05:41:49.675197+00:00", "meta": {"OBJECT_NAME": "VNREDSAT 1", "OBJECT_ID": "2013-021B", "EPOCH": "2025-12-19T22:19:17.407776", "MEAN_MOTION": 14.64932858, "ECCENTRICITY": 0.00012272, "INCLINATION": 97.937, "RA_OF_ASC_NODE": 48.9534, "ARG_OF_PERICENTER": 80.3667, "MEAN_ANOMALY": 279.7675, "EPHEMERIS_TYPE": 0, "CLASSIFICATION_TYPE": "U", "NORAD_CAT_ID": 39160, "ELEMENT_SET_NO": 999, "REV_AT_EPOCH": 67404, "BSTAR": 0.00010665235, "MEAN_MOTION_DOT": 5.25e-06, "MEAN_MOTION_DDOT": 0}, "tle": {"line1": "1 39160U 13021B   25353.93006259  .00000525  00000+0  10665-3 0  9990", "line2": "2 39160  97.9370  48.9534 0001227  80.3667 279.7675 14.64932858674045"}}, "geometry": {"type": "Point", "coordinates": [-130.75232306921689, -0.016141291943930505]}}, {"type": "Feature", "properties": {"norad_id": 39227, "name": "ARIRANG-5 (KOMPSAT-5)", "group": "resource", "lat": -64.20256916877747, "lon": -17.635085093356167, "alt_km": 562.2509944293652, "timestamp": "2025-12-20T05:41:49.675208+00:00", "meta": {"OBJECT_NAME": "ARIRANG-5 (KOMPSAT-5)", "OBJECT_ID": "2013-042A", "EPOCH": "2025-12-19T22:13:32.612160", "MEAN_MOTION": 15.04538009, "ECCENTRICITY": 0.00034536, "INCLINATION": 97.6152, "RA_OF_ASC_NODE": 178.1269, "ARG_OF_PERICENTER": 37.6305, "MEAN_ANOMALY": 322.5162, "EPHEMERIS_TYPE": 0, "CLASSIFICATION_TYPE": "U", "NORAD_CAT_ID": 39227, "ELEMENT_SET_NO": 999, "REV_AT_EPOCH": 67690, "BSTAR": 0.0001712888, "MEAN_MOTION_DOT": 2.34e-05, "MEAN_MOTION_DDOT": 0}, "tle": {"line1": "1 39227U 13042A   25353.92607190  .00002340  00000+0  17129-3 0  9996", "line2": "2 39227  97.6152 178.1269 0003453  37.6305 322.5162 15.04538009676902"}}, "geometry": {"type": "Point", "coordinates": [-17.635085093356167, -64.20256916877747]}}, {"type": "Feature", "properties": {"norad_id": 39418, "name": "SKYSAT-A", "group": "resource", "lat": 82.57243108115239, "lon": -42.412672272788654, "alt_km": 530.9709781106467, "timestamp": "2025-12-20T05:41:49.675234+00:00", "meta": {"OBJECT_NAME": "SKYSAT-A", "OBJECT_ID": "2013-066C", "EPOCH": "2025-12-19T21:21:27.283968", "MEAN_MOTION": 15.11652126, "ECCENTRICITY": 0.00212405, "INCLINATION": 97.4098, "RA_OF_ASC_NODE": 43.8813, "ARG_OF_PERICENTER": 210.6261, "MEAN_ANOMALY": 149.3731, "EPHEMERIS_TYPE": 0, "CLASSIFICATION_TYPE": "U", "NORAD_CAT_ID": 39418, "ELEMENT_SET_NO": 999, "REV_AT_EPOCH": 66138, "BSTAR": 0.00017646303, "MEAN_MOTION_DOT": 2.952e-05, "MEAN_MOTION_DDOT": 0}, "tle": {"line1": "1 39418U 13066C   25353.88989912  .00002952  00000+0  17646-3 0  9997", "line2": "2 39418  97.4098  43.8813 0021240 210.6261 149.3731 15.11652126661380"}}, "geometry": {"type": "Point", "coordinates": [-42.412672272788654, 82.57243108115239]}}, {"type": "Feature", "properties": {"norad_id": 39419, "name": "DUBAISAT-2", "group": "resource", "lat": 34.965295865294266, "lon": 169.65971084648726, "alt_km": 544.5953347102695, "timestamp": "2025-12-20T05:41:49.675245+00:00", "meta": {"OBJECT_NAME": "DUBAISAT-2", "OBJECT_ID": "2013-066D", "EPOCH": "2025-12-19T22:41:21.022080", "MEAN_MOTION": 15.08420151, "ECCENTRICITY": 0.00099502, "INCLINATION": 97.4442, "RA_OF_ASC_NODE": 344.1305, "ARG_OF_PERICENTER": 293.5024, "MEAN_ANOMALY": 66.5159, "EPHEMERIS_TYPE": 0, "CLASSIFICATION_TYPE": "U", "NORAD_CAT_ID": 39419, "ELEMENT_SET_NO": 999, "REV_AT_EPOCH": 65935, "BSTAR": 0.00021921309, "MEAN_MOTION_DOT": 3.353e-05, "MEAN_MOTION_DDOT": 0}, "tle": {"line1": "1 39419U 13066D   25353.94538220  .00003353  00000+0  21921-3 0  9994", "line2": "2 39419  97.4442 344.1305 0009950 293.5024  66.5159 15.08420151659353"}}, "geometry": {"type": "Point", "coordinates": [169.65971084648726, 34.965295865294266]}}, {"type": "Feature", "properties": {"norad_id": 39574, "name": "GPM-CORE", "group": "resource", "lat": -16.391087692835246, "lon": 15.473911884386645, "alt_km": 432.41725105557816, "timestamp": "2025-12-20T05:41:49.675255+00:00", "meta": {"OBJECT_NAME": "GPM-CORE", "OBJECT_ID": "2014-009C", "EPOCH": "2025-12-19T22:37:34.371552", "MEAN_MOTION": 15.44568665, "ECCENTRICITY": 0.00094175, "INCLINATION": 64.9719, "RA_OF_ASC_NODE": 188.5606, "ARG_OF_PERICENTER": 247.9507, "MEAN_ANOMALY": 112.0633, "EPHEMERIS_TYPE": 0, "CLASSIFICATION_TYPE": "U", "NORAD_CAT_ID": 39574, "ELEMENT_SET_NO": 999, "REV_AT_EPOCH": 67012, "BSTAR": 0.00012609601, "MEAN_MOTION_DOT": 5.645e-05, "MEAN_MOTION_DDOT": 0}, "tle": {"line1": "1 39574U 14009C   25353.94275893  .00005645  00000+0  12610-3 0  9999", "line2": "2 39574  64.9719 188.5606 0009417 247.9507 112.0633 15.44568665670127"}}, "geometry": {"type": "Point", "coordinates": [15.473911884386645, -16.391087692835246]}}]}